{
  "type": "FeatureCollection",
  "features": [
    {
      "type": "Feature",
      "properties": {
        "norad_id": 56564,
        "name": "BEIDOU-3 G4 (C62)",
        "group": "gnss",
        "lat": 0.08020765619690881,
        "lon": -52.59677709867614,
        "alt_km": 35795.080298891706,
        "timestamp": "2025-12-05T04:52:15.539690+00:00",
        "meta_object_name": "BEIDOU-3 G4 (C62)",
        "meta_object_id": "2023-066A",
        "meta_epoch": "2025-12-04T16:13:38.733600",
        "meta_mean_motion": 1.00270909,
        "meta_eccentricity": 0.0003274,
        "meta_inclination": 0.8338,
        "meta_ra_of_asc_node": 301.3518,
        "meta_arg_of_pericenter": 236.2772,
        "meta_mean_anomaly": 299.5959,
        "meta_ephemeris_type": 0,
        "meta_classification_type": "U",
        "meta_norad_cat_id": 56564,
        "meta_element_set_no": 999,
        "meta_rev_at_epoch": 944,
        "meta_bstar": 0,
        "meta_mean_motion_dot": -9.6e-07,
        "meta_mean_motion_ddot": 0,
        "tle_line1": "1 56564U 23066A   25338.67614275 -.00000096  00000+0  00000+0 0  9996",
        "tle_line2": "2 56564   0.8338 301.3518 0003274 236.2772 299.5959  1.00270909  9449"
      },
      "geometry": {
        "type": "Point",
        "coordinates": [
          -52.59677709867614,
          0.08020765619690881
        ]
      }
    },
    {
      "type": "Feature",
      "properties": {
        "norad_id": 56759,
        "name": "NVS-01 (IRNSS-1J)",
        "group": "gnss",
        "lat": 1.0939784103590713,
        "lon": -83.17266267106955,
        "alt_km": 35752.51973994612,
        "timestamp": "2025-12-05T04:52:15.539709+00:00",
        "meta_object_name": "NVS-01 (IRNSS-1J)",
        "meta_object_id": "2023-076A",
        "meta_epoch": "2025-12-04T14:20:31.070976",
        "meta_mean_motion": 1.00266631,
        "meta_eccentricity": 0.0008687,
        "meta_inclination": 2.6396,
        "meta_ra_of_asc_node": 251.899,
        "meta_arg_of_pericenter": 6.6675,
        "meta_mean_anomaly": 159.7569,
        "meta_ephemeris_type": 0,
        "meta_classification_type": "U",
        "meta_norad_cat_id": 56759,
        "meta_element_set_no": 999,
        "meta_rev_at_epoch": 916,
        "meta_bstar": 0,
        "meta_mean_motion_dot": -3.19e-06,
        "meta_mean_motion_ddot": 0,
        "tle_line1": "1 56759U 23076A   25338.59758184 -.00000319  00000+0  00000+0 0  9990",
        "tle_line2": "2 56759   2.6396 251.8990 0008687   6.6675 159.7569  1.00266631  9166"
      },
      "geometry": {
        "type": "Point",
        "coordinates": [
          -83.17266267106955,
          1.0939784103590713
        ]
      }
    },
    {
      "type": "Feature",
      "properties": {
        "norad_id": 57517,
        "name": "COSMOS 2569 (703K)",
        "group": "gnss",
        "lat": 8.981050820685326,
        "lon": -105.0139835112333,
        "alt_km": 19140.764005849844,
        "timestamp": "2025-12-05T04:52:15.539726+00:00",
        "meta_object_name": "COSMOS 2569 (703K)",
        "meta_object_id": "2023-114A",
        "meta_epoch": "2025-12-01T16:42:34.469856",
        "meta_mean_motion": 2.13103822,
        "meta_eccentricity": 0.0010109,
        "meta_inclination": 65.1883,
        "meta_ra_of_asc_node": 79.2867,
        "meta_arg_of_pericenter": 287.0179,
        "meta_mean_anomaly": 72.8703,
        "meta_ephemeris_type": 0,
        "meta_classification_type": "U",
        "meta_norad_cat_id": 57517,
        "meta_element_set_no": 999,
        "meta_rev_at_epoch": 1805,
        "meta_bstar": 0,
        "meta_mean_motion_dot": -1.6e-07,
        "meta_mean_motion_ddot": 0,
        "tle_line1": "1 57517U 23114A   25335.69623229 -.00000016  00000+0  00000+0 0  9999",
        "tle_line2": "2 57517  65.1883  79.2867 0010109 287.0179  72.8703  2.13103822 18055"
      },
      "geometry": {
        "type": "Point",
        "coordinates": [
          -105.0139835112333,
          8.981050820685326
        ]
      }
    },
    {
      "type": "Feature",
      "properties": {
        "norad_id": 58654,
        "name": "BEIDOU-3 M28 (C50)",
        "group": "gnss",
        "lat": -7.653759349788579,
        "lon": -105.85902492505696,
        "alt_km": 21528.104369862944,
        "timestamp": "2025-12-05T04:52:15.539742+00:00",
        "meta_object_name": "BEIDOU-3 M28 (C50)",
        "meta_object_id": "2023-207A",
        "meta_epoch": "2025-12-02T18:32:49.254720",
        "meta_mean_motion": 1.86229565,
        "meta_eccentricity": 0.00020071,
        "meta_inclination": 55.5759,
        "meta_ra_of_asc_node": 68.9391,
        "meta_arg_of_pericenter": 265.1815,
        "meta_mean_anomaly": 94.7983,
        "meta_ephemeris_type": 0,
        "meta_classification_type": "U",
        "meta_norad_cat_id": 58654,
        "meta_element_set_no": 999,
        "meta_rev_at_epoch": 1318,
        "meta_bstar": 0,
        "meta_mean_motion_dot": -4.9e-07,
        "meta_mean_motion_ddot": 0,
        "tle_line1": "1 58654U 23207A   25336.77279230 -.00000049  00000+0  00000+0 0  9990",
        "tle_line2": "2 58654  55.5759  68.9391 0002007 265.1815  94.7983  1.86229565 13186"
      },
      "geometry": {
        "type": "Point",
        "coordinates": [
          -105.85902492505696,
          -7.653759349788579
        ]
      }
    },
    {
      "type": "Feature",
      "properties": {
        "norad_id": 58655,
        "name": "BEIDOU-3 M26 (C48)",
        "group": "gnss",
        "lat": -28.31018868102587,
        "lon": 47.20818138310857,
        "alt_km": 21529.12285156527,
        "timestamp": "2025-12-05T04:52:15.539760+00:00",
        "meta_object_name": "BEIDOU-3 M26 (C48)",
        "meta_object_id": "2023-207B",
        "meta_epoch": "2025-12-03T02:34:45.227424",
        "meta_mean_motion": 1.86231091,
        "meta_eccentricity": 0.00034591,
        "meta_inclination": 55.5782,
        "meta_ra_of_asc_node": 68.9139,
        "meta_arg_of_pericenter": 250.5367,
        "meta_mean_anomaly": 109.429,
        "meta_ephemeris_type": 0,
        "meta_classification_type": "U",
        "meta_norad_cat_id": 58655,
        "meta_element_set_no": 999,
        "meta_rev_at_epoch": 1317,
        "meta_bstar": 0,
        "meta_mean_motion_dot": -5e-07,
        "meta_mean_motion_ddot": 0,
        "tle_line1": "1 58655U 23207B   25337.10746791 -.00000050  00000+0  00000+0 0  9992",
        "tle_line2": "2 58655  55.5782  68.9139 0003459 250.5367 109.4290  1.86231091 13176"
      },
      "geometry": {
        "type": "Point",
        "coordinates": [
          47.20818138310857,
          -28.31018868102587
        ]
      }
    },
    {
      "type": "Feature",
      "properties": {
        "norad_id": 59598,
        "name": "GSAT0225 (GALILEO 29)",
        "group": "gnss",
        "lat": -22.117012284877404,
        "lon": 89.95489397766794,
        "alt_km": 23230.693999414532,
        "timestamp": "2025-12-05T04:52:15.539776+00:00",
        "meta_object_name": "GSAT0225 (GALILEO 29)",
        "meta_object_id": "2024-079A",
        "meta_epoch": "2025-12-04T01:47:23.955648",
        "meta_mean_motion": 1.70474518,
        "meta_eccentricity": 0.0002,
        "meta_inclination": 54.9978,
        "meta_ra_of_asc_node": 106.5374,
        "meta_arg_of_pericenter": 171.9845,
        "meta_mean_anomaly": 188.0819,
        "meta_ephemeris_type": 0,
        "meta_classification_type": "U",
        "meta_norad_cat_id": 59598,
        "meta_element_set_no": 999,
        "meta_rev_at_epoch": 999,
        "meta_bstar": 0,
        "meta_mean_motion_dot": 1.5e-07,
        "meta_mean_motion_ddot": 0,
        "tle_line1": "1 59598U 24079A   25338.07458282  .00000015  00000+0  00000+0 0  9999",
        "tle_line2": "2 59598  54.9978 106.5374 0002000 171.9845 188.0819  1.70474518  9992"
      },
      "geometry": {
        "type": "Point",
        "coordinates": [
          89.95489397766794,
          -22.117012284877404
        ]
      }
    },
    {
      "type": "Feature",
      "properties": {
        "norad_id": 59600,
        "name": "GSAT0227 (GALILEO 30)",
        "group": "gnss",
        "lat": -31.893786138245325,
        "lon": -47.67599191351385,
        "alt_km": 23229.03033370649,
        "timestamp": "2025-12-05T04:52:15.539793+00:00",
        "meta_object_name": "GSAT0227 (GALILEO 30)",
        "meta_object_id": "2024-079C",
        "meta_epoch": "2025-12-03T16:06:35.879040",
        "meta_mean_motion": 1.70474617,
        "meta_eccentricity": 0.00034037,
        "meta_inclination": 54.9912,
        "meta_ra_of_asc_node": 106.5479,
        "meta_arg_of_pericenter": 113.2328,
        "meta_mean_anomaly": 246.7577,
        "meta_ephemeris_type": 0,
        "meta_classification_type": "U",
        "meta_norad_cat_id": 59600,
        "meta_element_set_no": 999,
        "meta_rev_at_epoch": 1003,
        "meta_bstar": 0,
        "meta_mean_motion_dot": 1.8e-07,
        "meta_mean_motion_ddot": 0,
        "tle_line1": "1 59600U 24079C   25337.67124860  .00000018  00000+0  00000+0 0  9993",
        "tle_line2": "2 59600  54.9912 106.5479 0003403 113.2328 246.7577  1.70474617 10033"
      },
      "geometry": {
        "type": "Point",
        "coordinates": [
          -47.67599191351385,
          -31.893786138245325
        ]
      }
    }
  ]
}